[{"OBJECT_NAME":"TRANSPORTER-10 OBJECT AD","OBJECT_ID":"2024-043AD","EPOCH":"2026-03-09T20:38:52.416960","MEAN_MOTION":15.34189901,"ECCENTRICITY":0.00089841,"INCLINATION":97.547,"RA_OF_ASC_NODE":207.3753,"ARG_OF_PERICENTER":221.4908,"MEAN_ANOMALY":138.5653,"EPHEMERIS_TYPE":0,"CLASSIFICATION_TYPE":"U","NORAD_CAT_ID":59125,"ELEMENT_SET_NO":999,"REV_AT_EPOCH":11202,"BSTAR":0.00036310552,"MEAN_MOTION_DOT":0.00011954,"MEAN_MOTION_DDOT":0},{"OBJECT_NAME":"STARLINK-34221","OBJECT_ID":"2025-130R","EPOCH":"2026-03-09T10:31:23.847744","MEAN_MOTION":15.30194722,"ECCENTRICITY":0.00013965,"INCLINATION":53.1602,"RA_OF_ASC_NODE":89.7733,"ARG_OF_PERICENTER":76.5586,"MEAN_ANOMALY":283.5571,"EPHEMERIS_TYPE":0,"CLASSIFICATION_TYPE":"U","NORAD_CAT_ID":64453,"ELEMENT_SET_NO":999,"REV_AT_EPOCH":4066,"BSTAR":0.0009795642,"MEAN_MOTION_DOT":0.0002876,"MEAN_MOTION_DDOT":0}]
